[{"OBJECT_NAME":"STARLINK-36880","OBJECT_ID":"2026-038R","EPOCH":"2026-03-04T20:00:03.000384","MEAN_MOTION":16.04196475,"ECCENTRICITY":0.0001135,"INCLINATION":97.2751,"RA_OF_ASC_NODE":73.7333,"ARG_OF_PERICENTER":67.4009,"MEAN_ANOMALY":204.903,"EPHEMERIS_TYPE":0,"CLASSIFICATION_TYPE":"U","NORAD_CAT_ID":67976,"ELEMENT_SET_NO":999,"REV_AT_EPOCH":241,"BSTAR":-0.0021529,"MEAN_MOTION_DOT":-0.01383122,"MEAN_MOTION_DDOT":0.00062707},{"OBJECT_NAME":"STARLINK-36904","OBJECT_ID":"2026-038S","EPOCH":"2026-03-04T20:00:03.000384","MEAN_MOTION":16.0445171,"ECCENTRICITY":0.0001122,"INCLINATION":97.2747,"RA_OF_ASC_NODE":73.735,"ARG_OF_PERICENTER":66.9977,"MEAN_ANOMALY":209.8202,"EPHEMERIS_TYPE":0,"CLASSIFICATION_TYPE":"U","NORAD_CAT_ID":67977,"ELEMENT_SET_NO":999,"REV_AT_EPOCH":241,"BSTAR":-0.0021193,"MEAN_MOTION_DOT":-0.01382439,"MEAN_MOTION_DDOT":0.00062842},{"OBJECT_NAME":"STARLINK-36364","OBJECT_ID":"2026-038T","EPOCH":"2026-03-04T20:00:03.000384","MEAN_MOTION":16.04887989,"ECCENTRICITY":0.000118,"INCLINATION":97.2743,"RA_OF_ASC_NODE":73.7384,"ARG_OF_PERICENTER":68.2555,"MEAN_ANOMALY":216.1221,"EPHEMERIS_TYPE":0,"CLASSIFICATION_TYPE":"U","NORAD_CAT_ID":67978,"ELEMENT_SET_NO":999,"REV_AT_EPOCH":241,"BSTAR":-0.0020525,"MEAN_MOTION_DOT":-0.01374534,"MEAN_MOTION_DDOT":0.00062504},{"OBJECT_NAME":"STARLINK-36359","OBJECT_ID":"2026-038U","EPOCH":"2026-03-04T20:00:03.000384","MEAN_MOTION":16.04299671,"ECCENTRICITY":0.0001146,"INCLINATION":97.2748,"RA_OF_ASC_NODE":73.7337,"ARG_OF_PERICENTER":70.0208,"MEAN_ANOMALY":204.2056,"EPHEMERIS_TYPE":0,"CLASSIFICATION_TYPE":"U","NORAD_CAT_ID":67979,"ELEMENT_SET_NO":999,"REV_AT_EPOCH":241,"BSTAR":-0.0021247,"MEAN_MOTION_DOT":-0.0137355,"MEAN_MOTION_DDOT":0.00061981},{"OBJECT_NAME":"STARLINK-36882","OBJECT_ID":"2026-038V","EPOCH":"2026-03-04T20:00:03.000384","MEAN_MOTION":16.04746576,"ECCENTRICITY":0.0001222,"INCLINATION":97.2744,"RA_OF_ASC_NODE":73.7372,"ARG_OF_PERICENTER":65.2939,"MEAN_ANOMALY":216.5662,"EPHEMERIS_TYPE":0,"CLASSIFICATION_TYPE":"U","NORAD_CAT_ID":67980,"ELEMENT_SET_NO":999,"REV_AT_EPOCH":241,"BSTAR":-0.0020849,"MEAN_MOTION_DOT":-0.01384274,"MEAN_MOTION_DDOT":0.0006322},{"OBJECT_NAME":"STARLINK-36874","OBJECT_ID":"2026-038W","EPOCH":"2026-03-04T20:00:03.000384","MEAN_MOTION":16.04986077,"ECCENTRICITY":0.0001169,"INCLINATION":97.2744,"RA_OF_ASC_NODE":73.7392,"ARG_OF_PERICENTER":62.9642,"MEAN_ANOMALY":223.2945,"EPHEMERIS_TYPE":0,"CLASSIFICATION_TYPE":"U","NORAD_CAT_ID":67981,"ELEMENT_SET_NO":999,"REV_AT_EPOCH":241,"BSTAR":-0.0020313,"MEAN_MOTION_DOT":-0.0136844,"MEAN_MOTION_DDOT":0.00062065},{"OBJECT_NAME":"STARLINK-36879","OBJECT_ID":"2026-038X","EPOCH":"2026-03-04T20:00:03.000384","MEAN_MOTION":16.05113356,"ECCENTRICITY":0.000109,"INCLINATION":97.2741,"RA_OF_ASC_NODE":73.7401,"ARG_OF_PERICENTER":63.5918,"MEAN_ANOMALY":224.9324,"EPHEMERIS_TYPE":0,"CLASSIFICATION_TYPE":"U","NORAD_CAT_ID":67982,"ELEMENT_SET_NO":999,"REV_AT_EPOCH":241,"BSTAR":-0.0020083,"MEAN_MOTION_DOT":-0.01363466,"MEAN_MOTION_DDOT":0.00061742},{"OBJECT_NAME":"STARLINK-36867","OBJECT_ID":"2026-038Y","EPOCH":"2026-03-04T20:00:03.000384","MEAN_MOTION":16.05381691,"ECCENTRICITY":0.0001181,"INCLINATION":97.274,"RA_OF_ASC_NODE":73.7423,"ARG_OF_PERICENTER":64.6362,"MEAN_ANOMALY":228.4852,"EPHEMERIS_TYPE":0,"CLASSIFICATION_TYPE":"U","NORAD_CAT_ID":67983,"ELEMENT_SET_NO":999,"REV_AT_EPOCH":241,"BSTAR":-0.0019867,"MEAN_MOTION_DOT":-0.01370788,"MEAN_MOTION_DDOT":0.00062562},{"OBJECT_NAME":"STARLINK-36266","OBJECT_ID":"2026-038Z","EPOCH":"2026-03-04T20:00:03.000384","MEAN_MOTION":16.05264714,"ECCENTRICITY":0.0001196,"INCLINATION":97.2741,"RA_OF_ASC_NODE":73.7414,"ARG_OF_PERICENTER":63.2129,"MEAN_ANOMALY":227.8248,"EPHEMERIS_TYPE":0,"CLASSIFICATION_TYPE":"U","NORAD_CAT_ID":67984,"ELEMENT_SET_NO":999,"REV_AT_EPOCH":238,"BSTAR":-0.0020034,"MEAN_MOTION_DOT":-0.01372551,"MEAN_MOTION_DDOT":0.00062622},{"OBJECT_NAME":"STARLINK-36802","OBJECT_ID":"2026-038AA","EPOCH":"2026-03-04T20:00:03.000384","MEAN_MOTION":16.05481721,"ECCENTRICITY":0.0001142,"INCLINATION":97.2739,"RA_OF_ASC_NODE":73.7429,"ARG_OF_PERICENTER":68.6876,"MEAN_ANOMALY":226.3446,"EPHEMERIS_TYPE":0,"CLASSIFICATION_TYPE":"U","NORAD_CAT_ID":67985,"ELEMENT_SET_NO":999,"REV_AT_EPOCH":241,"BSTAR":-0.0019458,"MEAN_MOTION_DOT":-0.01350991,"MEAN_MOTION_DDOT":0.00060971},{"OBJECT_NAME":"STARLINK-36535","OBJECT_ID":"2026-039A","EPOCH":"2026-03-03T14:00:03.000384","MEAN_MOTION":16.01492659,"ECCENTRICITY":0.0001745,"INCLINATION":42.9991,"RA_OF_ASC_NODE":92.9731,"ARG_OF_PERICENTER":278.5695,"MEAN_ANOMALY":344.8084,"EPHEMERIS_TYPE":0,"CLASSIFICATION_TYPE":"U","NORAD_CAT_ID":67986,"ELEMENT_SET_NO":999,"REV_AT_EPOCH":189,"BSTAR":-0.0021112,"MEAN_MOTION_DOT":-0.01224918,"MEAN_MOTION_DDOT":0.00048269},{"OBJECT_NAME":"STARLINK-36744","OBJECT_ID":"2026-039B","EPOCH":"2026-03-03T14:00:03.000384","MEAN_MOTION":16.01576759,"ECCENTRICITY":0.0001729,"INCLINATION":42.999,"RA_OF_ASC_NODE":92.9709,"ARG_OF_PERICENTER":277.3159,"MEAN_ANOMALY":346.8529,"EPHEMERIS_TYPE":0,"CLASSIFICATION_TYPE":"U","NORAD_CAT_ID":67987,"ELEMENT_SET_NO":999,"REV_AT_EPOCH":189,"BSTAR":-0.0020928,"MEAN_MOTION_DOT":-0.01220295,"MEAN_MOTION_DDOT":0.00047981},{"OBJECT_NAME":"STARLINK-36734","OBJECT_ID":"2026-039C","EPOCH":"2026-03-03T14:00:03.000384","MEAN_MOTION":16.01717704,"ECCENTRICITY":0.0001748,"INCLINATION":42.999,"RA_OF_ASC_NODE":92.969,"ARG_OF_PERICENTER":277.6394,"MEAN_ANOMALY":347.3229,"EPHEMERIS_TYPE":0,"CLASSIFICATION_TYPE":"U","NORAD_CAT_ID":67988,"ELEMENT_SET_NO":999,"REV_AT_EPOCH":189,"BSTAR":-0.0020687,"MEAN_MOTION_DOT":-0.01216341,"MEAN_MOTION_DDOT":0.00047771},{"OBJECT_NAME":"STARLINK-36957","OBJECT_ID":"2026-039D","EPOCH":"2026-03-03T14:00:03.000384","MEAN_MOTION":16.01813853,"ECCENTRICITY":0.0001762,"INCLINATION":42.9989,"RA_OF_ASC_NODE":92.967,"ARG_OF_PERICENTER":278.4252,"MEAN_ANOMALY":347.2042,"EPHEMERIS_TYPE":0,"CLASSIFICATION_TYPE":"U","NORAD_CAT_ID":67989,"ELEMENT_SET_NO":999,"REV_AT_EPOCH":189,"BSTAR":-0.0020423,"MEAN_MOTION_DOT":-0.01207716,"MEAN_MOTION_DDOT":0.00047204},{"OBJECT_NAME":"STARLINK-36951","OBJECT_ID":"2026-039E","EPOCH":"2026-03-03T14:00:03.000384","MEAN_MOTION":16.0194974,"ECCENTRICITY":0.00018181,"INCLINATION":42.999,"RA_OF_ASC_NODE":92.9652,"ARG_OF_PERICENTER":277.2446,"MEAN_ANOMALY":349.1623,"EPHEMERIS_TYPE":0,"CLASSIFICATION_TYPE":"U","NORAD_CAT_ID":67990,"ELEMENT_SET_NO":999,"REV_AT_EPOCH":189,"BSTAR":-0.0020187153,"MEAN_MOTION_DOT":-0.01203403,"MEAN_MOTION_DDOT":0.00046966207},{"OBJECT_NAME":"STARLINK-36941","OBJECT_ID":"2026-039F","EPOCH":"2026-03-03T14:00:03.000384","MEAN_MOTION":16.02029759,"ECCENTRICITY":0.0001734,"INCLINATION":42.9989,"RA_OF_ASC_NODE":92.9634,"ARG_OF_PERICENTER":278.6654,"MEAN_ANOMALY":348.3551,"EPHEMERIS_TYPE":0,"CLASSIFICATION_TYPE":"U","NORAD_CAT_ID":67991,"ELEMENT_SET_NO":999,"REV_AT_EPOCH":189,"BSTAR":-0.0020009,"MEAN_MOTION_DOT":-0.01198456,"MEAN_MOTION_DDOT":0.00046655}]
